{"type": "FeatureCollection", "features": [ {"type": "Feature", "properties": {"norad_id": 35759, "name": "COSMOS 2251 DEB", "group": "cosmos-2251-debris", "lat": 6.81657647730552, "lon": 37.61500674545309, "alt_km": 731.6409230676018, "timestamp": "2025-12-10T21:43:22.487705+00:00", "meta": {"OBJECT_NAME": "COSMOS 2251 DEB", "OBJECT_ID": "1993-036ARD", "EPOCH": "2025-12-09T08:52:32.162880", "MEAN_MOTION": 14.64874402, "ECCENTRICITY": 0.00769193, "INCLINATION": 74.0373, "RA_OF_ASC_NODE": 222.5271, "ARG_OF_PERICENTER": 341.4527, "MEAN_ANOMALY": 18.3839, "EPHEMERIS_TYPE": 0, "CLASSIFICATION_TYPE": "U", "NORAD_CAT_ID": 35759, "ELEMENT_SET_NO": 999, "REV_AT_EPOCH": 66086, "BSTAR": 0.0005052276, "MEAN_MOTION_DOT": 2.787e-05, "MEAN_MOTION_DDOT": 0}, "tle": {"line1": "1 35759U 93036ARD 25343.36981670  .00002787  00000+0  50523-3 0  9998", "line2": "2 35759  74.0373 222.5271 0076919 341.4527  18.3839 14.64874402660862"}}, "geometry": {"type": "Point", "coordinates": [37.61500674545309, 6.81657647730552]}}, {"type": "Feature", "properties": {"norad_id": 35771, "name": "COSMOS 2251 DEB", "group": "cosmos-2251-debris", "lat": 19.50648048435995, "lon": 127.78208927332365, "alt_km": 851.228976032623, "timestamp": "2025-12-10T21:43:22.487716+00:00", "meta": {"OBJECT_NAME": "COSMOS 2251 DEB", "OBJECT_ID": "1993-036ARR", "EPOCH": "2025-12-01T22:51:30.244896", "MEAN_MOTION": 14.12926683, "ECCENTRICITY": 0.02319351, "INCLINATION": 74.1552, "RA_OF_ASC_NODE": 329.2812, "ARG_OF_PERICENTER": 270.0606, "MEAN_ANOMALY": 87.396, "EPHEMERIS_TYPE": 0, "CLASSIFICATION_TYPE": "U", "NORAD_CAT_ID": 35771, "ELEMENT_SET_NO": 999, "REV_AT_EPOCH": 82708, "BSTAR": 0.0067662276, "MEAN_MOTION_DOT": 0.00016281, "MEAN_MOTION_DDOT": 0}, "tle": {"line1": "1 35771U 93036ARR 25335.95243339  .00016281  00000+0  67662-2 0  9996", "line2": "2 35771  74.1552 329.2812 0231935 270.0606  87.3960 14.12926683827080"}}, "geometry": {"type": "Point", "coordinates": [127.78208927332365, 19.50648048435995]}}, {"type": "Feature", "properties": {"norad_id": 35773, "name": "COSMOS 2251 DEB", "group": "cosmos-2251-debris", "lat": 68.43281704079612, "lon": 30.853971417890325, "alt_km": 668.1720823021597, "timestamp": "2025-12-10T21:43:22.487726+00:00", "meta": {"OBJECT_NAME": "COSMOS 2251 DEB", "OBJECT_ID": "1993-036ART", "EPOCH": "2025-12-10T00:01:47.898912", "MEAN_MOTION": 14.62043555, "ECCENTRICITY": 0.00456736, "INCLINATION": 74.008, "RA_OF_ASC_NODE": 346.0722, "ARG_OF_PERICENTER": 146.9218, "MEAN_ANOMALY": 213.4821, "EPHEMERIS_TYPE": 0, "CLASSIFICATION_TYPE": "U", "NORAD_CAT_ID": 35773, "ELEMENT_SET_NO": 999, "REV_AT_EPOCH": 86799, "BSTAR": 0.00076822314, "MEAN_MOTION_DOT": 3.885e-05, "MEAN_MOTION_DDOT": 0}, "tle": {"line1": "1 35773U 93036ART 25344.00124883  .00003885  00000+0  76822-3 0  9991", "line2": "2 35773  74.0080 346.0722 0045673 146.9218 213.4821 14.62043555867991"}}, "geometry": {"type": "Point", "coordinates": [30.853971417890325, 68.43281704079612]}}, {"type": "Feature", "properties": {"norad_id": 35777, "name": "COSMOS 2251 DEB", "group": "cosmos-2251-debris", "lat": -37.50348723470928, "lon": -47.24263662856603, "alt_km": 1154.0044957120099, "timestamp": "2025-12-10T21:43:22.487736+00:00", "meta": {"OBJECT_NAME": "COSMOS 2251 DEB", "OBJECT_ID": "1993-036ARX", "EPOCH": "2025-12-08T17:08:57.000768", "MEAN_MOTION": 13.41299794, "ECCENTRICITY": 0.04525672, "INCLINATION": 73.7701, "RA_OF_ASC_NODE": 329.172, "ARG_OF_PERICENTER": 224.5904, "MEAN_ANOMALY": 317.2432, "EPHEMERIS_TYPE": 0, "CLASSIFICATION_TYPE": "U", "NORAD_CAT_ID": 35777, "ELEMENT_SET_NO": 999, "REV_AT_EPOCH": 79630, "BSTAR": 0.0009131429, "MEAN_MOTION_DOT": 9.04e-06, "MEAN_MOTION_DDOT": 0}, "tle": {"line1": "1 35777U 93036ARX 25342.71454862  .00000904  00000+0  91314-3 0  9996", "line2": "2 35777  73.7701 329.1720 0452567 224.5904 317.2432 13.41299794796301"}}, "geometry": {"type": "Point", "coordinates": [-47.24263662856603, -37.50348723470928]}}, {"type": "Feature", "properties": {"norad_id": 35784, "name": "COSMOS 2251 DEB", "group": "cosmos-2251-debris", "lat": 8.946788161804625, "lon": -89.43183274238342, "alt_km": 709.3106596508514, "timestamp": "2025-12-10T21:43:22.487746+00:00", "meta": {"OBJECT_NAME": "COSMOS 2251 DEB", "OBJECT_ID": "1993-036ASE", "EPOCH": "2025-12-08T14:17:36.853152", "MEAN_MOTION": 14.50025184, "ECCENTRICITY": 0.0042468, "INCLINATION": 74.0364, "RA_OF_ASC_NODE": 97.4864, "ARG_OF_PERICENTER": 229.9837, "MEAN_ANOMALY": 129.7594, "EPHEMERIS_TYPE": 0, "CLASSIFICATION_TYPE": "U", "NORAD_CAT_ID": 35784, "ELEMENT_SET_NO": 999, "REV_AT_EPOCH": 65646, "BSTAR": 0.00067524, "MEAN_MOTION_DOT": 2.619e-05, "MEAN_MOTION_DDOT": 0}, "tle": {"line1": "1 35784U 93036ASE 25342.59556543  .00002619  00000+0  67524-3 0  9990", "line2": "2 35784  74.0364  97.4864 0042468 229.9837 129.7594 14.50025184656469"}}, "geometry": {"type": "Point", "coordinates": [-89.43183274238342, 8.946788161804625]}}, {"type": "Feature", "properties": {"norad_id": 35786, "name": "COSMOS 2251 DEB", "group": "cosmos-2251-debris", "lat": -16.608932432100072, "lon": 42.40582947051025, "alt_km": 701.1835933831981, "timestamp": "2025-12-10T21:43:22.487756+00:00", "meta": {"OBJECT_NAME": "COSMOS 2251 DEB", "OBJECT_ID": "1993-036ASG", "EPOCH": "2025-12-09T11:24:46.077120", "MEAN_MOTION": 14.66167214, "ECCENTRICITY": 0.00343345, "INCLINATION": 74.0142, "RA_OF_ASC_NODE": 50.0685, "ARG_OF_PERICENTER": 180.7191, "MEAN_ANOMALY": 179.3935, "EPHEMERIS_TYPE": 0, "CLASSIFICATION_TYPE": "U", "NORAD_CAT_ID": 35786, "ELEMENT_SET_NO": 999, "REV_AT_EPOCH": 73360, "BSTAR": 0.0015474252, "MEAN_MOTION_DOT": 8.565e-05, "MEAN_MOTION_DDOT": 0}, "tle": {"line1": "1 35786U 93036ASG 25343.47553330  .00008565  00000+0  15474-2 0  9993", "line2": "2 35786  74.0142  50.0685 0034334 180.7191 179.3935 14.66167214733601"}}, "geometry": {"type": "Point", "coordinates": [42.40582947051025, -16.608932432100072]}}, {"type": "Feature", "properties": {"norad_id": 35789, "name": "COSMOS 2251 DEB", "group": "cosmos-2251-debris", "lat": -51.90206048053079, "lon": 129.14604664703754, "alt_km": 808.4035695586908, "timestamp": "2025-12-10T21:43:22.487767+00:00", "meta": {"OBJECT_NAME": "COSMOS 2251 DEB", "OBJECT_ID": "1993-036ASK", "EPOCH": "2025-12-10T13:56:40.706880", "MEAN_MOTION": 14.35983063, "ECCENTRICITY": 0.00472407, "INCLINATION": 74.0389, "RA_OF_ASC_NODE": 288.3315, "ARG_OF_PERICENTER": 28.3225, "MEAN_ANOMALY": 332.048, "EPHEMERIS_TYPE": 0, "CLASSIFICATION_TYPE": "U", "NORAD_CAT_ID": 35789, "ELEMENT_SET_NO": 999, "REV_AT_EPOCH": 61196, "BSTAR": 0.00023035927, "MEAN_MOTION_DOT": 6.52e-06, "MEAN_MOTION_DDOT": 0}, "tle": {"line1": "1 35789U 93036ASK 25344.58102670  .00000652  00000+0  23036-3 0  9999", "line2": "2 35789  74.0389 288.3315 0047240  28.3225 332.0480 14.35983063611969"}}, "geometry": {"type": "Point", "coordinates": [129.14604664703754, -51.90206048053079]}}, {"type": "Feature", "properties": {"norad_id": 35793, "name": "COSMOS 2251 DEB", "group": "cosmos-2251-debris", "lat": 5.852467340911004, "lon": 65.46980248355048, "alt_km": 636.6222844432987, "timestamp": "2025-12-10T21:43:22.487777+00:00", "meta": {"OBJECT_NAME": "COSMOS 2251 DEB", "OBJECT_ID": "1993-036ASP", "EPOCH": "2025-12-10T12:00:05.903712", "MEAN_MOTION": 14.78584322, "ECCENTRICITY": 0.00027665, "INCLINATION": 74.0407, "RA_OF_ASC_NODE": 64.5844, "ARG_OF_PERICENTER": 128.5432, "MEAN_ANOMALY": 242.5188, "EPHEMERIS_TYPE": 0, "CLASSIFICATION_TYPE": "U", "NORAD_CAT_ID": 35793, "ELEMENT_SET_NO": 999, "REV_AT_EPOCH": 65764, "BSTAR": 0.0028765348, "MEAN_MOTION_DOT": 0.00021082, "MEAN_MOTION_DDOT": 0}, "tle": {"line1": "1 35793U 93036ASP 25344.50006833  .00021082  00000+0  28765-2 0  9993", "line2": "2 35793  74.0407  64.5844 0002766 128.5432 242.5188 14.78584322657640"}}, "geometry": {"type": "Point", "coordinates": [65.46980248355048, 5.852467340911004]}}, {"type": "Feature", "properties": {"norad_id": 35824, "name": "COSMOS 2251 DEB", "group": "cosmos-2251-debris", "lat": -72.84278709003858, "lon": -58.20318665153203, "alt_km": 1044.6555179437319, "timestamp": "2025-12-10T21:43:22.487787+00:00", "meta": {"OBJECT_NAME": "COSMOS 2251 DEB", "OBJECT_ID": "1993-036ASW", "EPOCH": "2025-12-08T11:24:31.157568", "MEAN_MOTION": 13.883958, "ECCENTRICITY": 0.02494458, "INCLINATION": 73.8458, "RA_OF_ASC_NODE": 56.1203, "ARG_OF_PERICENTER": 143.0234, "MEAN_ANOMALY": 218.8382, "EPHEMERIS_TYPE": 0, "CLASSIFICATION_TYPE": "U", "NORAD_CAT_ID": 35824, "ELEMENT_SET_NO": 999, "REV_AT_EPOCH": 84168, "BSTAR": 0.0020429183, "MEAN_MOTION_DOT": 3.116e-05, "MEAN_MOTION_DDOT": 0}, "tle": {"line1": "1 35824U 93036ASW 25342.47536062  .00003116  00000+0  20429-2 0  9991", "line2": "2 35824  73.8458  56.1203 0249445 143.0234 218.8382 13.88395800841685"}}, "geometry": {"type": "Point", "coordinates": [-58.20318665153203, -72.84278709003858]}}, {"type": "Feature", "properties": {"norad_id": 35825, "name": "COSMOS 2251 DEB", "group": "cosmos-2251-debris", "lat": 32.21183429919483, "lon": 155.99177251584524, "alt_km": 1221.4375987548783, "timestamp": "2025-12-10T21:43:22.487797+00:00", "meta": {"OBJECT_NAME": "COSMOS 2251 DEB", "OBJECT_ID": "1993-036ASX", "EPOCH": "2025-12-06T17:43:31.257408", "MEAN_MOTION": 13.70908059, "ECCENTRICITY": 0.03529553, "INCLINATION": 74.1125, "RA_OF_ASC_NODE": 152.5025, "ARG_OF_PERICENTER": 249.6557, "MEAN_ANOMALY": 106.6316, "EPHEMERIS_TYPE": 0, "CLASSIFICATION_TYPE": "U", "NORAD_CAT_ID": 35825, "ELEMENT_SET_NO": 999, "REV_AT_EPOCH": 82426, "BSTAR": 0.0026115912, "MEAN_MOTION_DOT": 3.599e-05, "MEAN_MOTION_DDOT": 0}, "tle": {"line1": "1 35825U 93036ASX 25340.73855622  .00003599  00000+0  26116-2 0  9999", "line2": "2 35825  74.1125 152.5025 0352955 249.6557 106.6316 13.70908059824269"}}, "geometry": {"type": "Point", "coordinates": [155.99177251584524, 32.21183429919483]}}]}